#dP2022  8  2 12  0  0.00000000      96 __u+U ITR00 EXT  IAC
## 2221 216000.00000000   900.00000000 59793 0.5000000000000
+  116   C06C07C08C09C10C11C12C13C14C16C19C20C21C22C23C24C25
+        C26C27C28C29C30C32C33C34C35C36C37C38C39C40C41C42C43
+        C44C45C46E01E02E03E04E05E07E08E09E10E11E12E13E14E15
+        E18E19E21E24E25E26E27E30E31E33E34E36G01G02G03G04G05
+        G06G07G08G09G10G11G12G13G14G15G16G17G18G19G20G21G22
+        G23G24G25G26G27G28G29G30G31G32J02J03R01R02R03R04R05
+        R07R08R09R11R12R13R14R15R17R18R19R20R21R24  0  0  0
++        10 11  8  9  9  9  9  9  8 10  8  8 10  8  8 10  8
++         7  7  8  8  8  6  9 10  8  8 10  7  9 11  9  8  9
++         9  8  9  6  7  8  7  7  7  7  8 10  8  8  8  9  8
++         8  8  8  7  6  8  7  6  7  8  8  7  8  7  7  9  6
++         7  7  8  7  7  6  8  8  6  8  7  7  8  7  7  8  9
++         6  9  8  7  8  7  8  7  8  6  9  9  8  7  8  9  7
++         7  7  7  9  8  9  8  9  8  7  9  9  8  8  0  0  0
%c M  cc GPS ccc cccc cccc cccc cccc ccccc ccccc ccccc ccccc
%c cc cc ccc ccc cccc cccc cccc cccc ccccc ccccc ccccc ccccc
%f  0.0000000  0.000000000  0.00000000000  0.000000000000000
%f  0.0000000  0.000000000  0.00000000000  0.000000000000000
%i    0    0    0    0      0      0      0      0         0
%i    0    0    0    0      0      0      0      0         0
/* IAC                                ULTRA-RAPID PREDICTION
/* S/V CLOCKS ARE ALIGNED TO GNSS TIME                      
/* G:C1WC2W R:C1PC2P E:C1XC5X C:C2IC6I J:C1CC2S             
/* PCV:IGS14_2215 OL/AL:FES2004  NONE     YN ORB:CoN CLK:CoN
*  2022 08 03  3 45  0.00000000
PC06 -15973.183409  25350.830849 -29730.528894    528.473139
PC07 -10514.073315  40626.927747  -2871.865787   -514.194887
PC08   1780.462219  27797.531499  31698.854917    427.807720
PC09  -7741.263131  25028.305916 -32762.245472   -907.612120
PC10  -5075.556300  41452.918073   3413.526671    112.515581
PC11 -26360.401493   1396.684943  -8932.190831   -492.356631
PC12 -14505.148634 -10412.876119 -21408.617701   -561.041717
PC13   6543.767886  30943.195396  28147.650235     41.980278
PC14 -16073.966108    -43.931164  22821.846241    571.514885
PC16 -19159.579583  24542.538559 -28349.079611    143.187958
PC19  16260.288156 -11101.706570 -19764.586542   -346.586769
PC20  13807.672536   9010.127258 -22501.080188   -965.071305
PC21  -2804.357232 -25131.860218  11842.031024   -109.528883
PC22   9485.921166 -25681.340393  -5493.624461     -0.183776
PC23  -5971.661773  16052.749401 -22018.360900   -956.153466
PC24 -22332.195355 -16082.709075  -4550.218998   -967.988689
PC25 -19796.761628   1393.579517 -19613.610468   -698.442103
PC26 -12887.789960 -22024.866101  11247.032747    700.576359
PC27   5306.222141  14972.940728  22919.918783    763.990250
PC28 -14477.918435  16702.150076  17028.751412     97.325696
PC29  26271.085288  -9407.976196   -450.369953    590.224522
PC30  22188.747640   4349.126394  16334.717006    501.745831
PC32   2946.947604  25125.694550 -11753.897210   -314.451041
PC33 -16238.104763  11038.360341  19822.675763   -317.854103
PC34 -22886.720774  -3643.160526 -15572.547747   -344.711976
PC35  15030.547464 -17064.907003 -16168.526932    394.882723
PC36  20126.482529   -411.507182  19358.575523   -970.070913
PC37  11397.769529  22345.385604 -12227.163323   -925.907607
PC38  -6584.673609  24638.366536  33614.842072     14.522819
PC39 -23809.028078  24862.960551 -24443.853684     -0.171601
PC40 -16567.665633  38156.132513  -6118.870608     -1.641280
PC41  -9721.977719  25459.593817   6040.168590   -133.705314
PC42 -13444.862115 -10268.328813  22236.600673    -48.246292
PC43 -26475.083531   8846.457100   -293.422516      6.499909
PC44  -5700.644636 -14987.319862 -22854.358379      5.327137
PC45   5598.256075 -16179.647668  22043.147274    825.243179
PC46  22736.341315  15017.292363   6120.859964   -465.992962
PE01   3205.863728  28357.717177  -7851.781785   -527.377373
PE02  -3319.590785 -28381.682167   7704.024521    315.957266
PE03   5701.454831 -23735.131856  16752.610148   -585.533408
PE04  11905.113076  12214.337033 -24185.234481  -1085.180859
PE05  20314.513510 -21522.004663   -691.916060   -157.073416
PE07 -22894.526968   6822.860086  17475.467695   -693.170967
PE08 -11949.232276 -11967.698857  24294.942058   -574.628274
PE09  22801.518248  -6960.531635 -17552.294286   -609.656311
PE10  27888.991407   8852.666480   4495.509079   -504.851502
PE11  28907.782941   2289.354871  -5937.145210   2778.773216
PE12  22434.092988  13798.582625  13488.514139    -95.164999
PE13 -29010.629915  -2760.869922   5185.202967    430.085181
PE14 -18147.366824  -9240.842935 -22295.130795  -1760.640633
PE15 -22345.047104 -13778.908091 -13676.561814    729.293822
PE18  24036.077658  -6251.305731  11622.770341  -1139.869283
PE19  -8085.177167  24217.891196 -14969.651131  -4915.699432
PE21  -9535.074919  18179.409540 -21318.459303   -749.597983
PE24  17944.814529   4386.566320  23126.355900   -759.768485
PE25   9724.067480 -17921.026885  21469.741121   -583.251218
PE26 -17811.895639  10371.378874  21237.099240  -1450.615903
PE27 -17750.166165  -3073.045611 -23476.577729   -359.471301
PE30 -15025.384836 -22990.561522 -11027.659177   -723.596039
PE31  15457.772403  22310.715661  11822.696773   -501.008230
PE33   2540.261900  16608.727427  24365.122053   -454.156991
PE34  -2769.421932 -16633.575057 -24338.654944   -489.027970
PE36  18593.093105  -9790.090519 -20852.263997   -411.263276
PG01 -20398.374294 -14145.413876 -10221.422033    309.227826
PG02   4137.725557  16150.879524  21294.049115   -650.067244
PG03 -12281.591185 -20521.419961  11549.545659   -323.050518
PG04 -11076.736809 -10504.015440  21746.180769   -138.035229
PG05   5907.112007  25795.907550    876.659942    -91.476608
PG06 -15268.366454   8783.265211  19964.535636    410.470580
PG07 -25853.691814  -5455.602115  -4210.422573    316.579603
PG08  -3882.727638 -16105.638574 -20720.487912    -78.860680
PG09 -19361.473542    505.815811  18121.306638   -312.407244
PG10  12657.999768  -9478.738256 -21139.364497   -514.505342
PG11  -2418.920332  15204.008040  21641.026681    -10.502427
PG12   9731.510882  22728.211568   9581.425364   -256.316760
PG13  -6654.551551  18947.870177 -17447.803222    360.634419
PG14 -14014.620443   7669.452064 -21198.272840   -110.552218
PG15   6240.210120  16138.719694 -20506.050292    -40.358299
PG16   1108.233889 -25558.496262   5910.940312   -518.701825
PG17 -22443.539298  12935.797925  -5553.659089    644.178532
PG18  25585.258781   5076.254384  -5369.037929     93.854989
PG19 -20112.104771  16856.336041   2897.746423    192.117495
PG20  -1309.892922  23171.862773  13123.196700    497.961207
PG21 -13992.395658 -15202.055788 -16454.289619    160.771100
PG22  17779.224838 -18762.989741   6106.400498    303.222481
PG23  15613.404816   2198.284788 -21403.093422    -35.523378
PG24  17909.262507  14703.252023 -13653.460847    179.581289
PG25  15547.326862  11421.451908  18084.609691    356.495473
PG26   5882.661054 -20826.885396  15101.493387    221.694047
PG27   8594.041569 -20697.101143 -14158.378219    220.549813
PG28  -9970.070197  17227.578120 -17192.158338    339.012108
PG29  19136.296568    848.247204  18384.112194   -539.407230
PG30 -22539.684104   3006.016505 -13838.607432   -535.251885
PG31  13526.748661 -10459.240605  20302.815302   -188.213382
PG32  21021.765610 -15596.480068  -3697.695846   -193.311892
PJ02 -20416.460757  24470.650797 -23000.572365     -2.561694
PJ03 -29220.707036  26473.219467  19871.181734     -0.410225
PR01   1593.372417 -21604.719854  13478.380074     12.510994
PR02  -9190.184866  -6036.681690  23054.505831    525.865976
PR03 -14117.269925  11852.920569  17701.845331     61.231995
PR04 -11148.564307  22796.651537   2668.327057    152.687681
PR05  -2173.970046  21306.695204 -13864.331204     97.289023
PR07  14110.770702 -12486.535370 -17132.223956     38.796764
PR08  10956.866024 -22889.061313  -2394.082891    -66.508897
PR09  18060.250868  15262.143795   9489.409017     69.174052
PR11   2388.149095 -13517.620326  21518.388833     31.535495
PR12 -11290.151048 -21311.177955   8321.081901     19.706295
PR13 -17787.477935 -16355.567753  -8184.419399    -25.299277
PR14 -13819.146219   -914.008036 -21407.241217     24.658717
PR15  -1888.345471  14218.754661 -21065.423668     94.384798
PR17 -24827.797678   4555.847853   3502.982099    549.049211
PR18 -15054.743267   9845.072569  18114.503430     35.679529
PR19   1095.068222  10284.987039  23310.258404   -198.608857
PR20  20604.775858   4662.485364  14271.842742    -75.815104
PR21  24498.996893  -5072.061221  -5070.288082   -322.487017
PR24 -21194.899091  -4080.347308 -13566.046452    106.897818
EOF
